CCSDS_OMM_VERS = 2.0
CREATION_DATE  = 
ORIGINATOR     = 

OBJECT_NAME    = UNKNOWN
OBJECT_ID      = 2025-271AE
CENTER_NAME    = EARTH
REF_FRAME      = TEME
TIME_SYSTEM    = UTC
MEAN_ELEMENT_THEORY = SGP/SGP4

EPOCH          = 2025-12-02T16:00:03.000096
MEAN_MOTION    = 15.87051116
ECCENTRICITY   = .0000717
INCLINATION    = 53.1571
RA_OF_ASC_NODE = 236.7807
ARG_OF_PERICENTER = 110.7411
MEAN_ANOMALY   = 313.9012

EPHEMERIS_TYPE = 0
CLASSIFICATION_TYPE = U
NORAD_CAT_ID   = 66551
ELEMENT_SET_NO = 999
REV_AT_EPOCH   = 262
BSTAR          = -.74303E-2
MEAN_MOTION_DOT = -.1709685E-1
MEAN_MOTION_DDOT = 0

CCSDS_OMM_VERS = 2.0
CREATION_DATE  = 
ORIGINATOR     = 

OBJECT_NAME    = GLOBAL-33
OBJECT_ID      = 2025-267A
CENTER_NAME    = EARTH
REF_FRAME      = TEME
TIME_SYSTEM    = UTC
MEAN_ELEMENT_THEORY = SGP/SGP4

EPOCH          = 2025-12-09T14:22:09.826176
MEAN_MOTION    = 15.31535046
ECCENTRICITY   = .00046403
INCLINATION    = 42.0203
RA_OF_ASC_NODE = 75.1254
ARG_OF_PERICENTER = 30.4756
MEAN_ANOMALY   = 329.6351

EPHEMERIS_TYPE = 0
CLASSIFICATION_TYPE = U
NORAD_CAT_ID   = 66554
ELEMENT_SET_NO = 999
REV_AT_EPOCH   = 292
BSTAR          = .60900929E-3
MEAN_MOTION_DOT = .18748E-3
MEAN_MOTION_DDOT = 0

CCSDS_OMM_VERS = 2.0
CREATION_DATE  = 
ORIGINATOR     = 

OBJECT_NAME    = ELECTRON KICK STAGE R/B
OBJECT_ID      = 2025-267B
CENTER_NAME    = EARTH
REF_FRAME      = TEME
TIME_SYSTEM    = UTC
MEAN_ELEMENT_THEORY = SGP/SGP4

EPOCH          = 2025-12-09T14:08:24.415872
MEAN_MOTION    = 15.32568899
ECCENTRICITY   = .00067718
INCLINATION    = 42.0198
RA_OF_ASC_NODE = 75.0548
ARG_OF_PERICENTER = 28.3952
MEAN_ANOMALY   = 331.7253

EPHEMERIS_TYPE = 0
CLASSIFICATION_TYPE = U
NORAD_CAT_ID   = 66555
ELEMENT_SET_NO = 999
REV_AT_EPOCH   = 292
BSTAR          = .10090003E-2
MEAN_MOTION_DOT = .32333E-3
MEAN_MOTION_DDOT = 0

CCSDS_OMM_VERS = 2.0
CREATION_DATE  = 
ORIGINATOR     = 

OBJECT_NAME    = STARLINK-35699
OBJECT_ID      = 2025-268A
CENTER_NAME    = EARTH
REF_FRAME      = TEME
TIME_SYSTEM    = UTC
MEAN_ELEMENT_THEORY = SGP/SGP4

EPOCH          = 2025-12-09T20:00:01.999008
MEAN_MOTION    = 15.50564788
ECCENTRICITY   = .0001042
INCLINATION    = 43.0006
RA_OF_ASC_NODE = 138.1976
ARG_OF_PERICENTER = 286.6013
MEAN_ANOMALY   = 128.9134

EPHEMERIS_TYPE = 0
CLASSIFICATION_TYPE = U
NORAD_CAT_ID   = 66557
ELEMENT_SET_NO = 999
REV_AT_EPOCH   = 420
BSTAR          = .10738E-2
MEAN_MOTION_DOT = .6313E-3
MEAN_MOTION_DDOT = 0

CCSDS_OMM_VERS = 2.0
CREATION_DATE  = 
ORIGINATOR     = 

OBJECT_NAME    = STARLINK-35695
OBJECT_ID      = 2025-268B
CENTER_NAME    = EARTH
REF_FRAME      = TEME
TIME_SYSTEM    = UTC
MEAN_ELEMENT_THEORY = SGP/SGP4

EPOCH          = 2025-12-09T20:00:01.999008
MEAN_MOTION    = 15.50554791
ECCENTRICITY   = .0001149
INCLINATION    = 43.0006
RA_OF_ASC_NODE = 138.1932
ARG_OF_PERICENTER = 287.5054
MEAN_ANOMALY   = 129.9135

EPHEMERIS_TYPE = 0
CLASSIFICATION_TYPE = U
NORAD_CAT_ID   = 66558
ELEMENT_SET_NO = 999
REV_AT_EPOCH   = 420
BSTAR          = .11599E-2
MEAN_MOTION_DOT = .68238E-3
MEAN_MOTION_DDOT = 0

CCSDS_OMM_VERS = 2.0
CREATION_DATE  = 
ORIGINATOR     = 

OBJECT_NAME    = STARLINK-35419
OBJECT_ID      = 2025-268C
CENTER_NAME    = EARTH
REF_FRAME      = TEME
TIME_SYSTEM    = UTC
MEAN_ELEMENT_THEORY = SGP/SGP4

EPOCH          = 2025-12-09T20:00:01.999008
MEAN_MOTION    = 15.50550905
ECCENTRICITY   = .0002012
INCLINATION    = 43.0005
RA_OF_ASC_NODE = 138.1890
ARG_OF_PERICENTER = 275.9898
MEAN_ANOMALY   = 143.4399

EPHEMERIS_TYPE = 0
CLASSIFICATION_TYPE = U
NORAD_CAT_ID   = 66559
ELEMENT_SET_NO = 999
REV_AT_EPOCH   = 420
BSTAR          = .51102E-3
MEAN_MOTION_DOT = .29722E-3
MEAN_MOTION_DDOT = 0

CCSDS_OMM_VERS = 2.0
CREATION_DATE  = 
ORIGINATOR     = 

OBJECT_NAME    = STARLINK-35411
OBJECT_ID      = 2025-268D
CENTER_NAME    = EARTH
REF_FRAME      = TEME
TIME_SYSTEM    = UTC
MEAN_ELEMENT_THEORY = SGP/SGP4

EPOCH          = 2025-12-09T20:00:01.999008
MEAN_MOTION    = 15.50588490
ECCENTRICITY   = .0002054
INCLINATION    = 43.0005
RA_OF_ASC_NODE = 138.1844
ARG_OF_PERICENTER = 276.6157
MEAN_ANOMALY   = 144.7296

EPHEMERIS_TYPE = 0
CLASSIFICATION_TYPE = U
NORAD_CAT_ID   = 66560
ELEMENT_SET_NO = 999
REV_AT_EPOCH   = 420
BSTAR          = -.79539E-3
MEAN_MOTION_DOT = -.46744E-3
MEAN_MOTION_DDOT = 0

CCSDS_OMM_VERS = 2.0
CREATION_DATE  = 
ORIGINATOR     = 

OBJECT_NAME    = STARLINK-35305
OBJECT_ID      = 2025-268E
CENTER_NAME    = EARTH
REF_FRAME      = TEME
TIME_SYSTEM    = UTC
MEAN_ELEMENT_THEORY = SGP/SGP4

EPOCH          = 2025-12-09T20:00:01.999008
MEAN_MOTION    = 15.50547080
ECCENTRICITY   = .0001964
INCLINATION    = 43.0006
RA_OF_ASC_NODE = 138.1745
ARG_OF_PERICENTER = 276.9645
MEAN_ANOMALY   = 148.2158

EPHEMERIS_TYPE = 0
CLASSIFICATION_TYPE = U
NORAD_CAT_ID   = 66561
ELEMENT_SET_NO = 999
REV_AT_EPOCH   = 415
BSTAR          = .6229E-3
MEAN_MOTION_DOT = .3633E-3
MEAN_MOTION_DDOT = 0

CCSDS_OMM_VERS = 2.0
CREATION_DATE  = 
ORIGINATOR     = 

OBJECT_NAME    = STARLINK-35579
OBJECT_ID      = 2025-268F
CENTER_NAME    = EARTH
REF_FRAME      = TEME
TIME_SYSTEM    = UTC
MEAN_ELEMENT_THEORY = SGP/SGP4

EPOCH          = 2025-12-09T20:00:01.999008
MEAN_MOTION    = 15.50587827
ECCENTRICITY   = .0001999
INCLINATION    = 43.0006
RA_OF_ASC_NODE = 138.1787
ARG_OF_PERICENTER = 275.9486
MEAN_ANOMALY   = 147.3132

EPHEMERIS_TYPE = 0
CLASSIFICATION_TYPE = U
NORAD_CAT_ID   = 66562
ELEMENT_SET_NO = 999
REV_AT_EPOCH   = 420
BSTAR          = -.74273E-3
MEAN_MOTION_DOT = -.43687E-3
MEAN_MOTION_DDOT = 0

CCSDS_OMM_VERS = 2.0
CREATION_DATE  = 
ORIGINATOR     = 

OBJECT_NAME    = STARLINK-35437
OBJECT_ID      = 2025-268G
CENTER_NAME    = EARTH
REF_FRAME      = TEME
TIME_SYSTEM    = UTC
MEAN_ELEMENT_THEORY = SGP/SGP4

EPOCH          = 2025-12-09T20:00:01.999008
MEAN_MOTION    = 15.50552916
ECCENTRICITY   = .0001951
INCLINATION    = 43.0005
RA_OF_ASC_NODE = 138.1693
ARG_OF_PERICENTER = 277.5546
MEAN_ANOMALY   = 149.5484

EPHEMERIS_TYPE = 0
CLASSIFICATION_TYPE = U
NORAD_CAT_ID   = 66563
ELEMENT_SET_NO = 999
REV_AT_EPOCH   = 420
BSTAR          = .19986E-3
MEAN_MOTION_DOT = .11389E-3
MEAN_MOTION_DDOT = 0

CCSDS_OMM_VERS = 2.0
CREATION_DATE  = 
ORIGINATOR     = 

OBJECT_NAME    = STARLINK-35358
OBJECT_ID      = 2025-268H
CENTER_NAME    = EARTH
REF_FRAME      = TEME
TIME_SYSTEM    = UTC
MEAN_ELEMENT_THEORY = SGP/SGP4

EPOCH          = 2025-12-09T20:00:01.999008
MEAN_MOTION    = 15.50564632
ECCENTRICITY   = .0001984
INCLINATION    = 43.0004
RA_OF_ASC_NODE = 138.1646
ARG_OF_PERICENTER = 278.1191
MEAN_ANOMALY   = 150.9020

EPHEMERIS_TYPE = 0
CLASSIFICATION_TYPE = U
NORAD_CAT_ID   = 66564
ELEMENT_SET_NO = 999
REV_AT_EPOCH   = 415
BSTAR          = -.16698E-3
MEAN_MOTION_DOT = -.1012E-3
MEAN_MOTION_DDOT = 0

CCSDS_OMM_VERS = 2.0
CREATION_DATE  = 
ORIGINATOR     = 

OBJECT_NAME    = STARLINK-35893
OBJECT_ID      = 2025-268J
CENTER_NAME    = EARTH
REF_FRAME      = TEME
TIME_SYSTEM    = UTC
MEAN_ELEMENT_THEORY = SGP/SGP4

EPOCH          = 2025-12-09T20:00:01.999008
MEAN_MOTION    = 15.50576507
ECCENTRICITY   = .0001995
INCLINATION    = 43.0004
RA_OF_ASC_NODE = 138.1596
ARG_OF_PERICENTER = 276.3540
MEAN_ANOMALY   = 154.5725

EPHEMERIS_TYPE = 0
CLASSIFICATION_TYPE = U
NORAD_CAT_ID   = 66565
ELEMENT_SET_NO = 999
REV_AT_EPOCH   = 420
BSTAR          = -.34622E-3
MEAN_MOTION_DOT = -.20598E-3
MEAN_MOTION_DDOT = 0

CCSDS_OMM_VERS = 2.0
CREATION_DATE  = 
ORIGINATOR     = 

OBJECT_NAME    = STARLINK-35871
OBJECT_ID      = 2025-268K
CENTER_NAME    = EARTH
REF_FRAME      = TEME
TIME_SYSTEM    = UTC
MEAN_ELEMENT_THEORY = SGP/SGP4

EPOCH          = 2025-12-09T20:00:01.999008
MEAN_MOTION    = 15.50583204
ECCENTRICITY   = .0001883
INCLINATION    = 43.0004
RA_OF_ASC_NODE = 138.1549
ARG_OF_PERICENTER = 275.7019
MEAN_ANOMALY   = 157.1393

EPHEMERIS_TYPE = 0
CLASSIFICATION_TYPE = U
NORAD_CAT_ID   = 66566
ELEMENT_SET_NO = 999
REV_AT_EPOCH   = 420
BSTAR          = -.48112E-3
MEAN_MOTION_DOT = -.28469E-3
MEAN_MOTION_DDOT = 0

CCSDS_OMM_VERS = 2.0
CREATION_DATE  = 
ORIGINATOR     = 

OBJECT_NAME    = STARLINK-35825
OBJECT_ID      = 2025-268L
CENTER_NAME    = EARTH
REF_FRAME      = TEME
TIME_SYSTEM    = UTC
MEAN_ELEMENT_THEORY = SGP/SGP4

EPOCH          = 2025-12-09T20:00:01.999008
MEAN_MOTION    = 15.50558688
ECCENTRICITY   = .00019
INCLINATION    = 43.0005
RA_OF_ASC_NODE = 138.1500
ARG_OF_PERICENTER = 276.4888
MEAN_ANOMALY   = 158.2823

EPHEMERIS_TYPE = 0
CLASSIFICATION_TYPE = U
NORAD_CAT_ID   = 66567
ELEMENT_SET_NO = 999
REV_AT_EPOCH   = 420
BSTAR          = .27904E-3
MEAN_MOTION_DOT = .1605E-3
MEAN_MOTION_DDOT = 0

CCSDS_OMM_VERS = 2.0
CREATION_DATE  = 
ORIGINATOR     = 

OBJECT_NAME    = STARLINK-35803
OBJECT_ID      = 2025-268M
CENTER_NAME    = EARTH
REF_FRAME      = TEME
TIME_SYSTEM    = UTC
MEAN_ELEMENT_THEORY = SGP/SGP4

EPOCH          = 2025-12-09T20:00:01.999008
MEAN_MOTION    = 15.50585166
ECCENTRICITY   = .0001821
INCLINATION    = 43.0004
RA_OF_ASC_NODE = 138.1448
ARG_OF_PERICENTER = 275.6132
MEAN_ANOMALY   = 161.0663

EPHEMERIS_TYPE = 0
CLASSIFICATION_TYPE = U
NORAD_CAT_ID   = 66568
ELEMENT_SET_NO = 999
REV_AT_EPOCH   = 420
BSTAR          = -.57702E-3
MEAN_MOTION_DOT = -.34054E-3
MEAN_MOTION_DDOT = 0

